#dP2021  6 26  0  0  0.00000000      96 __u+U ITR00 FIT  IAC
## 2163 518400.00000000   900.00000000 59391 0.0000000000000
+  126   C01C02C03C04C05C06C07C08C09C10C11C12C13C14C16C19C20
+        C21C22C23C24C25C26C27C28C29C30C32C33C34C35C36C37C38
+        C39C40C41C42C43C44C45C46C60E01E02E03E04E05E07E08E09
+        E11E12E13E14E15E18E19E21E24E25E26E27E30E31E33E36G01
+        G02G03G04G05G06G07G08G09G10G12G13G14G15G16G17G18G19
+        G20G21G22G23G24G25G26G27G28G29G30G31G32J01J02J03J07
+        R01R02R03R04R05R06R07R08R09R10R11R12R13R14R15R16R17
+        R18R19R20R21R22R23R24  0  0  0  0  0  0  0  0  0  0
++        13 12 13  0 13 10 10  9  9 10  8  9  9  9  9  8  8
++         8  8  8  8  7  8  8  8  8  8  8  8  8  8  8  8  9
++         9  9  8  9  8  8  8  8 13  5  4  4  5  5  4  4  5
++         4  4  4  5  4  5  4  5  4  4  4  4  4  5  5  5  4
++         4  4  4  4  4  4  3  4  4  4  4  3  3  4  4  3  4
++         4  4  4  3  3  4  4  4  4  4  3  4  4  9  8  8 15
++         7  6  6  6  6 14  6  6  6 13  7  6  8  6  6  7  6
++         6  8  7  6  8 13  6  0  0  0  0  0  0  0  0  0  0
%c M  cc GPS ccc cccc cccc cccc cccc ccccc ccccc ccccc ccccc
%c cc cc ccc ccc cccc cccc cccc cccc ccccc ccccc ccccc ccccc
%f  0.0000000  0.000000000  0.00000000000  0.000000000000000
%f  0.0000000  0.000000000  0.00000000000  0.000000000000000
%i    0    0    0    0      0      0      0      0         0
%i    0    0    0    0      0      0      0      0         0
/* INFORMATION & ANALYSIS CENTER (IAC)            RAPID DATA
/* S/V CLOCKS ARE ALIGNED TO GNSS TIME                      
/* G:C1WC2W R:C1PC2P E:C1XC5X C:C2IC6I J:C1CC2S             
/* PCV:IGS14_2148 OL/AL:FES2004  NONE     YN ORB:CoN CLK:CoN
*  2021 06 26  4 45  0.00000000
PC01 -34272.796808  24533.452018    155.642040   -333.804632
PC02   4331.670545  41918.448611   -363.215789    561.251677
PC03 -14755.973372  39448.672865    629.636099   -142.601250
PC04      0.000000      0.000000      0.000000 999999.999999
PC05  21873.152170  36005.529437   -458.618658    -72.698016
PC06 -16203.838861  20419.091233 -32749.797670    548.525531
PC07 -20927.915140  35670.669529   6865.912398     33.647185
PC08  -4507.583918  33784.729579  25178.147916   -897.532386
PC09    814.524008  25178.219681 -33447.384655    420.155216
PC10  -9442.435603  36578.517645  18448.424731    -25.560472
PC11  17991.450632  16165.766509  14009.095509    421.721641
PC12   -840.844916  15747.211972  23050.954957    831.621479
PC13   3325.946286  39308.035109  15334.143508    313.878850
PC14   7475.611392  14435.577086 -22649.150608    864.478767
PC16 -12952.134250  21338.363047 -33879.030887   -922.987623
PC19 -15720.348609  -6426.354110  22167.359773    886.332065
PC20    414.773567 -19213.932470  20264.387677   -863.949159
PC21 -17180.258784  21105.473417  -6092.401283   -935.063376
PC22 -23278.863309  10469.326151  11246.185803   -949.038005
PC23  15960.332113  -3049.345435  22697.605109   -948.333824
PC24   5050.024154  27447.994681   -671.281052   -910.099199
PC25  15643.760459  16460.059952  16230.156897   -895.262306
PC26  -6492.781501  22123.248469 -15748.342331    887.427790
PC27  11370.839643 -12366.225562 -22303.634869    554.400484
PC28  25296.881793    139.547108 -11791.766238    -57.881800
PC29 -24760.640619 -11589.856345  -5614.905510    411.187095
PC30  -9215.501752 -17239.424569 -19932.949361    471.976100
PC32  17019.965570 -21267.712957   6117.393905   -924.256434
PC33  15744.660758   6377.051126 -22135.516619   -938.446953
PC34   9953.016344  17261.483308  19514.436948   -641.955970
PC35 -25462.010620    490.239287  11437.393686   -215.811088
PC36 -15126.338441 -17162.634340 -15953.282505   -729.073276
PC37   7601.073206 -21269.023664  16401.784947   -870.736767
PC38  -4378.384846  35127.131972  23015.129785    157.699725
PC39 -10048.936086  22574.518581 -34160.211599     32.016167
PC40 -18716.504214  33943.206505  16439.213616    174.617387
PC41  23239.175579 -10335.122131 -11432.958738   -951.490559
PC42  -1122.759190  19559.754743 -19818.792496   -915.106025
PC43  24440.809712  11991.930381   6069.053564   -793.460993
PC44 -11243.093514  12728.021151  22135.173912    258.443936
PC45 -15791.963328   3227.837746 -22770.632298    477.189118
PC46  -5773.105407 -27283.114891   -327.996425    207.139621
PC60   7302.659280  41473.057782   1792.417421     -0.624481
PE01 -15497.244736  21371.769525 -13384.870948  -1137.172114
PE02  15452.633587 -21463.092551  13285.093672    228.690642
PE03  23403.192731 -14196.649163  11291.447284   -446.020942
PE04  -4717.170932  18002.261139 -23006.265091   -800.353823
PE05  28631.292136  -1982.718843  -7248.683960   -270.003323
PE07 -17107.413807 -11264.999680  21375.385229   -554.353049
PE08   4293.571530 -17873.966173  23210.550461   5980.053823
PE09  17325.550281  10934.886336 -21361.462163   5621.057476
PE11  20273.800843  21528.377891   1082.931879   5802.144170
PE12   5009.510523  22416.759941  18652.295090   5141.544070
PE13 -20124.554518 -21656.408365  -1544.761476    418.229841
PE14  28736.730001    932.675716   1254.589390  -1479.098410
PE15  -5166.949376 -22382.502034 -18671.382062    806.785408
PE18 -22821.276451 -10908.992208 -12854.415508  -1620.404420
PE19 -24874.051491  13042.840728  -9334.423117    311.599818
PE21 -17382.271014   2402.007026 -23835.975600   -672.787879
PE24   8738.347857  19577.054659  20408.520657   -974.938140
PE25  17353.156865  -2164.727523  23890.629368   -538.085704
PE26 -23052.088916  -7433.645772  17010.080538   1650.038548
PE27  -9331.571512 -18760.839507 -20899.942700    -62.373719
PE30   4957.805792 -28790.220585  -4741.717622   2833.406731
PE31  -4133.849223  28747.662649   5718.870244   -482.605684
PE33 -12806.833045   9923.801316  24769.738262   -468.598654
PE36  23200.849116   8172.681970 -16463.809358   -226.057312
PG01 -18831.998107  -9013.014060  16353.344156    646.965229
PG02  13095.530493  22627.235557   5145.987934   -615.174001
PG03 -16381.915955   1026.380594  20766.244658   -202.606490
PG04 -26421.158251  -1151.449766   2808.696996   -200.915825
PG05  10483.203820  12701.447980 -20964.219893    -46.065499
PG06   3869.794848  22387.902401  13766.815639     31.692532
PG07 -14181.912375   6063.664853 -21295.258020    187.634306
PG08 -22583.798043  -6799.014138 -12524.021654    -26.510808
PG09 -24160.518035   7694.142857  -8009.715410   -352.885243
PG10  11447.642169 -23800.143910    320.979824   -149.807582
PG12  15873.251130   1146.491092  20988.830282    -60.143750
PG13  15534.992246  13030.027411 -17362.537142    149.697726
PG14 -12563.633666  23375.139227    366.753468     61.410463
PG15  23343.321209   5082.565129 -12332.520330   -139.799636
PG16  -4700.799925 -17597.320567 -19408.874183   -347.257786
PG17 -13167.209536  13049.344514  19448.474603    464.307601
PG18  11822.636749  -9411.954583 -21851.860507    344.790591
PG19  -3579.437101  14423.084036  21718.530641     18.284768
PG20   8340.412570  17550.657139 -18222.269744    520.795655
PG21 -20508.446884 -14088.581974  10675.525581    127.437935
PG22 -13609.917427  -8526.462323  21357.939644   -579.020260
PG23  16418.121534 -17928.619325 -10653.581846     92.472854
PG24  20497.074081  12208.381175  11829.838297    149.207700
PG25  17785.672893 -11544.449204  15562.404340    162.615533
PG26   1676.699909 -23940.387182 -11132.439986    103.071073
PG27 -13377.142829 -12427.815760 -19598.383796   -153.200606
PG28  -9077.425963  24146.828375   7270.805028    548.335819
PG29  25143.527568  -4666.257061  -7329.033255   -370.291995
PG30  -4858.840837  18068.014723 -18696.824960   -443.526208
PG31  -5070.324874 -23151.491123  11409.783264   -125.185052
PG32   9662.844655 -14763.143954  19916.116054     17.002742
PJ01 -36220.169071  20632.437028  -1468.143298   -403.011352
PJ02 -22424.536655  30836.543724 -13337.864342     -0.431071
PJ03 -27286.650641  23349.655059  27260.555462     -9.173690
PJ07 -25360.157330  33673.524386    -13.505485     -0.022849
PR01  12327.196638   4632.899970 -21843.994182     81.431277
PR02  22492.001057  -9378.597367  -7393.747234    483.759453
PR03  17157.534098 -15976.605757  10036.807074     38.364742
PR04   2425.308057 -13310.963622  21653.621054     92.980528
PR05 -13740.737511  -3363.941402  21245.279574     74.235191
PR06 -22317.589429  10539.311808   6479.152768    200.375111
PR07 -16852.883442  16018.610802 -10498.846104    -42.224836
PR08  -2345.301366  13373.855506 -21539.619460    -59.680335
PR09 -10907.881445   4939.747455 -22495.350265     -0.207742
PR10  -5957.467242  20506.842334 -14007.178828    -72.234741
PR11   2570.715708  25141.952613   3411.745832    -15.490117
PR12   9381.092047  14392.297752  18890.981445    240.258032
PR13  10717.149829  -4211.544483  22749.494257    -56.848604
PR14   5722.615956 -21167.900569  13064.253575     65.765493
PR15  -2455.076358 -25089.073994  -3891.063589    103.034051
PR16 -10113.143746 -13006.061270 -19445.298843    -16.945811
PR17   7595.111414  -7782.899715 -23075.367168    435.832350
PR18  -9120.811716 -14771.594374 -18704.108104     81.314660
PR19 -20149.023385 -14728.494855  -5265.468803   -149.190518
PR20 -20593.673613  -4944.520081  14247.522612    -51.491549
PR21  -6330.118791   8440.574096  23214.965283   -219.313092
PR22   9896.692179  14936.683109  18088.899612   -119.567243
PR23  22491.390647  11912.880690  -1711.617914     -8.246833
PR24  20501.355589   3863.813880 -14679.141630     48.010592
EOF
